# Made by eph2tle, compiled Oct  9 2023 15:42:32
# Run at Thu Oct 19 17:00:01 2023
#
#    The following TLEs (Two-Line Elements) were generated by fitting
# a numerically-integrated ephemeris,  based on the orbit given below,
# to the SDP4/SGP4 models.  Each TLE is good for the interval between
# its epoch and the epoch of the subsequent TLE (usually one day).
# The maximum deviation between the numerically integrated ephemerides
# and the TLE-based ephemeris, in kilometers,  is given for each TLE
# as the "worst residual".
#
#    This fitting is done using the 'eph2tle' code packaged with Find_Orb.
# The code has details on how the TLEs were computed :
#
#    https://github.com/Bill-Gray/find_orb/eph2tle.cpp
#
#    Be warned:  the error given is that between the numerically
# integrated ephems and the TLE model.  There will usually be at
# least some additional difference between the ephems and the actual
# motion of the satellite,  especially if the ephemerides are based
# on a short arc.  If the following orbital elements say something
# like "[based on] 10 observations 2015 Jan. 1-13",  and the TLEs
# are for 2015 May,  the extrapolation may be tenuous at best.  If
# your application requires a specific level of accuracy,  you may
# want to contact me;  I can give you some idea as to the fit of the
# underlying data (and possibly TLEs based on newer data).
#
#   You can usually find the underlying observational data,  and the
# fitted orbit,  residuals,  ephemerides,  and sometimes some comments
# about the object,  among the pages listed at
#
#    https://www.projectpluto.com/pluto/mpecs/pseudo.htm
#
#    WARNING:  for this object,  "normal" TLEs cannot be fitted.  (This
# usually means an object with an hyperbolic or nearly-parabolic orbit.)
# For this and similar cases,   an alternative model is used,  in which
# most of the traditional TLE data is replaced by six signed 8-digit hex
# numbers.  These six numbers are a state vector,  numerically integrated
# using a simplified force model.  This is necessary for objects at L2 or
# L1,  and sometimes for objects in high orbits where the SDP4/SGP4 model
# fails.  Some documentation is in 'get_el.cpp' in the source code at
# https://www.github.com/Bill-Gray/sat_code ; look for 'hex' in that file,
# with the actual integration done in 'sdp4.cpp'.  But be aware:  it's my
# own extension,  doesn't work with other code,  and is therefore used
# only when necessary.
#
#    Also,  if you use a TLE outside the "correct" time range (between
# its MJD and that of the next TLE),  all bets are off.  I've carefully
# computed and minimized the worst error over the "correct" time frame,
# but the ephemeris may (or may not) diverge wildly outside of it.
#
# Ephem range: 60231.000000 60310.000000 1.000000
# Created Thu Oct 19 16:59:36 2023
# Ephemeris start: 14 Oct 2023  0:00:00
# Ephemeris end:    1 Jan 2024  0:00:00
# Times are all TDT
# Positions/velocities are in equatorial J2000
# Orbital elements:  Psyche = 2023-157A = NORAD 58049
#    Perigee 2023 Oct 13.635549 +/- 0.000617 TT = 15:15:11.4 (JD 2460231.135549)
# Epoch 2023 Oct 15.0 TT = JDT 2460232.5                           Find_Orb
# q  7046.785243 +/- 17.8             (J2000 equator)
# H   28.78 G 0.15                    Peri.  300.373305 +/- 0.06
#                                     Node    47.562516 +/- 0.052
# e   1.59950560 +/- 0.00266          Incl.   30.194048 +/- 0.010
# 9 of 10 observations 2023 Oct. 14-15 (25.5 hr); mean residual 0".143
#
# 1 NoradU COSPAR   Epoch.epoch     dn/dt/2  d2n/dt2/6 BSTAR    T El# C
# 2 NoradU Inclina RAAscNode Eccent  ArgPeri MeanAno  MeanMotion Rev# C

# Worst residual: 10.01 km
# MJD 60231.000000 (2023 Oct 14  0:00)
Psyche = 2023-157A = NORAD 58049
1 58049U 23157A   23286.99919926 -0011GN9D +002WGL0J +001KTM5ZH 21182
2 58049                          -000D4L8K +000TJ1QG +000H5140     02

# Worst residual: 11.87 km
# MJD 60232.000000 (2023 Oct 15  0:00)
Psyche = 2023-157A = NORAD 58049
1 58049U 23157A   23287.99919926 -00449M2P +009SV8P8 +005L6IZTH 21189
2 58049                          -000COITY +000SEVE7 +000GIMW7     03

# Worst residual: 1.39 km
# MJD 60233.000000 (2023 Oct 16  0:00)
Psyche = 2023-157A = NORAD 58049
1 58049U 23157A   23288.99919926 -0075C6CB +00GLDC60 +009JBQGLH 21188
2 58049                          -000CKV5Q +000S7T6O +000GEK6D     03

# Worst residual: 1.33 km
# MJD 60234.000000 (2023 Oct 17  0:00)
Psyche = 2023-157A = NORAD 58049
1 58049U 23157A   23289.99919926 -00A5R59J +00NCQGGN +00DGT3LSH 21188
2 58049                          -000CIPGA +000S4IQB +000GCMJK     03

# Worst residual: 1.58 km
# MJD 60235.000000 (2023 Oct 18  0:00)
Psyche = 2023-157A = NORAD 58049
1 58049U 23157A   23290.99919926 -00D5PI8B +00U3GP56 +00HDWWIBH 21185
2 58049                          -000CGXQQ +000S2BPN +000GBB94     04

# Worst residual: 1.91 km
# MJD 60236.000000 (2023 Oct 19  0:00)
Psyche = 2023-157A = NORAD 58049
1 58049U 23157A   23291.99919926 -00G5924R +010TPYSO +00LAQGRYH 21180
2 58049                          -000CF8X1 +000S0IYU +000GA7VB     05

# Worst residual: 2.30 km
# MJD 60237.000000 (2023 Oct 20  0:00)
Psyche = 2023-157A = NORAD 58049
1 58049U 23157A   23292.99919926 -00J4DVFU +017JKDSJ +00P7AXKNH 21189
2 58049                          -000CDIBG +000RYUXW +000G96UW     04

# Worst residual: 2.75 km
# MJD 60238.000000 (2023 Oct 21  0:00)
Psyche = 2023-157A = NORAD 58049
1 58049U 23157A   23293.99919926 -00M336L0 +01E90H96 +00T3MIOXH 21181
2 58049                          -000CBNAM +000RX746 +000G85K5     04

# Worst residual: 3.28 km
# MJD 60239.000000 (2023 Oct 22  0:00)
Psyche = 2023-157A = NORAD 58049
1 58049U 23157A   23294.99919926 -00P1BOKX +01KY1Z7X +00WZOYLLH 21182
2 58049                          -000C9LVK +000RVH05 +000G72GR     02

# Worst residual: 3.86 km
# MJD 60240.000000 (2023 Oct 23  0:00)
Psyche = 2023-157A = NORAD 58049
1 58049U 23157A   23295.99919926 -00RZ1MBY +01RMO4WZ +010VHPCGH 21180
2 58049                          -000C7C8X +000RTN3K +000G5WM2     04

# Worst residual: 4.47 km
# MJD 60241.000000 (2023 Oct 24  0:00)
Psyche = 2023-157A = NORAD 58049
1 58049U 23157A   23296.99919926 -00UW6SRV +01YATX8H +014R003VH 21187
2 58049                          -000C4SI0 +000RROHA +000G4NCQ     07

# Worst residual: 5.00 km
# MJD 60242.000000 (2023 Oct 25  0:00)
Psyche = 2023-157A = NORAD 58049
1 58049U 23157A   23297.99919926 -00XSOJIV +024YI56I +018M6ZIRH 21187
2 58049                          -000C1WIR +000RPKP6 +000G3AA3     02

# Worst residual: 5.37 km
# MJD 60243.000000 (2023 Oct 26  0:00)
Psyche = 2023-157A = NORAD 58049
1 58049U 23157A   23298.99919926 -010OFMXR +02BLNJY5 +01CH1PRSH 21186
2 58049                          -000BYLYY +000RNBSN +000G1T8J     08

# Worst residual: 5.56 km
# MJD 60244.000000 (2023 Oct 27  0:00)
Psyche = 2023-157A = NORAD 58049
1 58049U 23157A   23299.99919926 -013JCAFO +02I88ZEV +01GBJ8W9H 21187
2 58049                          -000BUUD3 +000RKYD0 +000G08CP     00

# Worst residual: 5.62 km
# MJD 60245.000000 (2023 Oct 28  0:00)
Psyche = 2023-157A = NORAD 58049
1 58049U 23157A   23300.99919926 -016DA3XH +02OU9H50 +01K5MPESH 21182
2 58049                          -000BQJ8O +000RIHL3 +000FYK2Q     02

# Worst residual: 5.66 km
# MJD 60246.000000 (2023 Oct 29  0:00)
Psyche = 2023-157A = NORAD 58049
1 58049U 23157A   23301.99919926 -019644ZD +02VFOFHG +01NZBD27H 21187
2 58049                          -000BLMDY +000RFZ89 +000FWT5V     01

# Worst residual: 5.82 km
# MJD 60247.000000 (2023 Oct 30  0:00)
Psyche = 2023-157A = NORAD 58049
1 58049U 23157A   23302.99919926 -01BXOXT4 +0320HQ26 +01RSKPB9H 21180
2 58049                          -000BG215 +000RDHHY +000FV0MP     07

# Worst residual: 6.14 km
# MJD 60248.000000 (2023 Oct 31  0:00)
Psyche = 2023-157A = NORAD 58049
1 58049U 23157A   23303.99919926 -01ENUPOS +038KPSUF +01VLEH6AH 21182
2 58049                          -000B9SYK +000RB2V9 +000FT7NM     06

# Worst residual: 6.57 km
# MJD 60249.000000 (2023 Nov  1  0:00)
Psyche = 2023-157A = NORAD 58049
1 58049U 23157A   23304.99919926 -01HCFFW8 +03F4DPNJ +01ZDSQ61H 21188
2 58049                          -000B2UIY +000R8TW0 +000FRFH7     06

# Worst residual: 7.01 km
# MJD 60250.000000 (2023 Nov  2  0:00)
Psyche = 2023-157A = NORAD 58049
1 58049U 23157A   23305.99919926 -01JZ90B4 +03LNJ447 +0235RSH8H 21185
2 58049                          -000AV6KN +000R6T1H +000FPPBC     02

# Worst residual: 7.37 km
# MJD 60251.000000 (2023 Nov  3  0:00)
Psyche = 2023-157A = NORAD 58049
1 58049U 23157A   23306.99919926 -01MK5B56 +03S688NV +026XCAJRH 21186
2 58049                          -000AMTBD +000R52NF +000FO2BF     08

# Worst residual: 7.64 km
# MJD 60252.000000 (2023 Nov  4  0:00)
Psyche = 2023-157A = NORAD 58049
1 58049U 23157A   23307.99919926 -01P2YBNT +03YOJV2C +02AOJ4DPH 21181
2 58049                          -000ADR86 +000R3OVA +000FMJJQ     06

# Worst residual: 7.82 km
# MJD 60253.000000 (2023 Nov  5  0:00)
Psyche = 2023-157A = NORAD 58049
1 58049U 23157A   23308.99919926 -01RJI60J +0456L8YQ +02EFDESSH 21180
2 58049                          -000A40YD +000R2POO +000FL5ZL     00

# Worst residual: 7.97 km
# MJD 60254.000000 (2023 Nov  6  0:00)
Psyche = 2023-157A = NORAD 58049
1 58049U 23157A   23309.99919926 -01TXN4IR +04BOG4MC +02I5WITGH 21189
2 58049                          -0009TN9T +000R26YO +000FJYJZ     05

# Worst residual: 8.16 km
# MJD 60255.000000 (2023 Nov  7  0:00)
Psyche = 2023-157A = NORAD 58049
1 58049U 23157A   23310.99919926 -01W97ONS +04I68NXJ +02LW614RH 21189
2 58049                          -0009IN2C +000R26GP +000FIY41     03

# Worst residual: 8.43 km
# MJD 60256.000000 (2023 Nov  8  0:00)
Psyche = 2023-157A = NORAD 58049
1 58049U 23157A   23311.99919926 -01YI2K18 +04OO3FP1 +02PM7PR5H 21186
2 58049                          -000971BW +000R2PVK +000FI5HN     03

